SL-14 R/B               
1 16496U 86006B   26062.66532654  .00000785  00000+0  81026-4 0  9999
2 16496  82.5234 265.4087 0075185 293.1762  66.1546 14.86805690148312
COSMOS 1743             
1 16719U 86034A   26062.47741506  .00035452  00000+0  47113-3 0  9992
2 16719  82.5291  80.3487 0002253 335.7563  24.3586 15.58030499179286
SL-14 R/B               
1 16792U 86046B   26062.54329486  .00000612  00000+0  67753-4 0  9996
2 16792  82.4782  85.9912 0021655 246.8752 113.0182 14.85583365125490
SL-14 R/B               
1 16882U 86055B   26062.68381201  .00000613  00000+0  67819-4 0  9998
2 16882  82.5212 132.3189 0018705 356.8629 117.9735 14.85636306118470
AJISAI (EGS)            
1 16908U 86061A   26062.93053738 -.00000074  00000+0  16554-3 0  9994
2 16908  50.0081 111.0577 0011253 272.2043 144.3226 12.44515541467285
COSMOS 1812             
1 17295U 87003A   26063.04902557  .02533764 -12240-5  79820-3 0  9995
2 17295  82.4701 202.0527 0008403 285.1252  74.9110 16.26408876143576
SL-14 R/B               
1 17567U 87024B   26062.51160943  .00000591  00000+0  64631-4 0  9990
2 17567  82.5253  98.5720 0016686 282.2797  77.6551 14.86125276 87219
COSMOS 1833             
1 17589U 87027A   26062.84316043 -.00000132  00000+0 -44695-4 0  9998
2 17589  70.9233 338.3056 0024534 222.6312 137.2906 14.13056076  9493
SL-16 R/B               
1 17590U 87027B   26062.83377188 -.00000176  00000+0 -63545-4 0  9999
2 17590  71.0018 288.8359 0003700 155.3712 204.7589 14.17166371 14511
SL-14 R/B               
1 17912U 87038B   26062.70549893  .00000563  00000+0  62506-4 0  9993
2 17912  82.5013 302.4453 0019159 179.9345 180.1877 14.85363133 78346
COSMOS 1844             
1 17973U 87041A   26062.95525350 -.00000070  00000+0 -11352-4 0  9991
2 17973  70.8994  46.2703 0029687  26.4833 333.7798 14.14553266  2779
SL-14 R/B               
1 18153U 87055B   26062.81820231  .00000821  00000+0  91673-4 0  9994
2 18153  82.5029 354.5633 0021633  36.5793 323.6895 14.85621278 69064
COSMOS 1867             
1 18187U 87060A   26062.85234507  .00000021  00000+0  45689-4 0  9994
2 18187  65.0119 323.0524 0014401 278.2606  81.6846 14.31502019 19109
SL-14 R/B               
1 18749U 88001B   26062.81308633  .00000808  00000+0  90674-4 0  9999
2 18749  82.5143 200.8861 0016618 256.7672 103.1690 14.85519361 41150
COSMOS 1933             
1 18958U 88020A   26062.85729473  .00005645  00000+0  27688-3 0  9993
2 18958  82.5095 256.6845 0003389 204.7221 155.3851 15.17921529 49349
SL-3 R/B                
1 19046U 88032B   26062.93888466  .00007715  00000+0  36043-3 0  9997
2 19046  97.5180  46.2103 0024113 252.9858 106.8734 15.19827326 51232
SL-16 R/B               
1 19120U 88039B   26062.49774189  .00000081  00000+0  60980-4 0  9991
2 19120  71.0130  81.6418 0022412 343.4793  16.5599 14.19615601957504
